STARLINK-37056          
1 68260U 26054AE  26090.67152185  .00235203  00000+0  11596-2 0  9999
2 68260  53.1592 202.2638 0000634  94.1824 265.9271 15.80937428  2251
TEN-KOH 2               
1 68261U 25241B   26090.86916705  .00010551  00000+0  45831-3 0  9991
2 68261  51.6394 327.4148 0004541 237.0257 123.0284 15.22816119  3124
STARLINK-37162          
1 68262U 26055A   26090.83335647 -.01130043  00000+0 -45251-2 0  9990
2 68262  53.1577 226.4060 0000829  57.6526 266.8696 15.88418691  3191
STARLINK-37156          
1 68263U 26055B   26090.83335647 -.01131370  00000+0 -45127-2 0  9997
2 68263  53.1575 226.3993 0000823  57.2096 270.7660 15.88499262  3194
STARLINK-37163          
1 68264U 26055C   26090.83335647 -.01144390  00000+0 -45500-2 0  9999
2 68264  53.1574 226.3815 0000851  57.4315 278.6436 15.88593967  3199
STARLINK-37133          
1 68265U 26055D   26090.83335647 -.01137163  00000+0 -45293-2 0  9999
2 68265  53.1574 226.3904 0000788  58.5292 273.5597 15.88542077  3192
STARLINK-37042          
1 68266U 26055E   26090.83335647 -.01146081  00000+0 -45582-2 0  9990
2 68266  53.1573 226.3721 0000876  57.4703 283.3667 15.88591387  3197
STARLINK-37103          
1 68267U 26055F   26090.83335647 -.01163768  00000+0 -46293-2 0  9992
2 68267  53.1575 226.3631 0000828  57.5677 287.5626 15.88631179  3193
STARLINK-36999          
1 68268U 26055G   26090.83335647 -.01165478  00000+0 -46254-2 0  9990
2 68268  53.1574 226.3549 0000672  59.4969 289.6471 15.88682874  3192
STARLINK-36962          
1 68269U 26055H   26090.83335647 -.01170793  00000+0 -46388-2 0  9995
2 68269  53.1574 226.3461 0000852  58.6229 294.6936 15.88726251  3196
STARLINK-37028          
1 68270U 26055J   26090.83335647 -.01220393  00000+0 -47781-2 0  9997
2 68270  53.1573 226.3229 0000871  55.8238 308.4398 15.88643010  3196
STARLINK-37029          
1 68271U 26055K   26090.83335647 -.01216979  00000+0 -47732-2 0  9999
2 68271  53.1572 226.3321 0000775  57.5860 302.4251 15.88602314  3196
STARLINK-36974          
1 68272U 26055L   26090.83335647 -.01233482  00000+0 -48347-2 0  9991
2 68272  53.1572 226.3128 0000883  55.8071 313.3810 15.88647356  3194
STARLINK-37019          
1 68273U 26055M   26090.83335647 -.01237293  00000+0 -48346-2 0  9995
2 68273  53.1573 226.3041 0000854  58.2250 314.8513 15.88716304  3190
STARLINK-37129          
1 68274U 26055N   26090.83335647 -.01237965  00000+0 -48267-2 0  9994
2 68274  53.1570 226.2955 0000918  58.9506 318.3885 15.88759938  3194
STARLINK-37123          
1 68275U 26055P   26090.83335647 -.01242475  00000+0 -48278-2 0  9999
2 68275  53.1573 226.2878 0000858  55.5157 325.6203 15.88836851  3195
STARLINK-37125          
1 68276U 26055Q   26090.83335647 -.01248412  00000+0 -48488-2 0  9990
2 68276  53.1570 226.2779 0000947  61.0823 324.8556 15.88856139  3197
