[{"OBJECT_NAME":"STARLINK-37056","OBJECT_ID":"2026-054AE","EPOCH":"2026-03-31T16:06:59.487840","MEAN_MOTION":15.80937428,"ECCENTRICITY":6.34e-5,"INCLINATION":53.1592,"RA_OF_ASC_NODE":202.2638,"ARG_OF_PERICENTER":94.1824,"MEAN_ANOMALY":265.9271,"EPHEMERIS_TYPE":0,"CLASSIFICATION_TYPE":"U","NORAD_CAT_ID":68260,"ELEMENT_SET_NO":999,"REV_AT_EPOCH":225,"BSTAR":0.0011596,"MEAN_MOTION_DOT":0.00235203,"MEAN_MOTION_DDOT":0},{"OBJECT_NAME":"TEN-KOH 2","OBJECT_ID":"2025-241B","EPOCH":"2026-03-31T20:51:36.033120","MEAN_MOTION":15.22816119,"ECCENTRICITY":0.0004541,"INCLINATION":51.6394,"RA_OF_ASC_NODE":327.4148,"ARG_OF_PERICENTER":237.0257,"MEAN_ANOMALY":123.0284,"EPHEMERIS_TYPE":0,"CLASSIFICATION_TYPE":"U","NORAD_CAT_ID":68261,"ELEMENT_SET_NO":999,"REV_AT_EPOCH":312,"BSTAR":0.00045831,"MEAN_MOTION_DOT":0.00010551,"MEAN_MOTION_DDOT":0},{"OBJECT_NAME":"STARLINK-37162","OBJECT_ID":"2026-055A","EPOCH":"2026-03-31T20:00:01.999008","MEAN_MOTION":15.88418691,"ECCENTRICITY":8.29e-5,"INCLINATION":53.1577,"RA_OF_ASC_NODE":226.406,"ARG_OF_PERICENTER":57.6526,"MEAN_ANOMALY":266.8696,"EPHEMERIS_TYPE":0,"CLASSIFICATION_TYPE":"U","NORAD_CAT_ID":68262,"ELEMENT_SET_NO":999,"REV_AT_EPOCH":319,"BSTAR":-0.0045251,"MEAN_MOTION_DOT":-0.01130043,"MEAN_MOTION_DDOT":0},{"OBJECT_NAME":"STARLINK-37156","OBJECT_ID":"2026-055B","EPOCH":"2026-03-31T20:00:01.999008","MEAN_MOTION":15.88499262,"ECCENTRICITY":8.23e-5,"INCLINATION":53.1575,"RA_OF_ASC_NODE":226.3993,"ARG_OF_PERICENTER":57.2096,"MEAN_ANOMALY":270.766,"EPHEMERIS_TYPE":0,"CLASSIFICATION_TYPE":"U","NORAD_CAT_ID":68263,"ELEMENT_SET_NO":999,"REV_AT_EPOCH":319,"BSTAR":-0.0045127,"MEAN_MOTION_DOT":-0.0113137,"MEAN_MOTION_DDOT":0},{"OBJECT_NAME":"STARLINK-37163","OBJECT_ID":"2026-055C","EPOCH":"2026-03-31T20:00:01.999008","MEAN_MOTION":15.88593967,"ECCENTRICITY":8.51e-5,"INCLINATION":53.1574,"RA_OF_ASC_NODE":226.3815,"ARG_OF_PERICENTER":57.4315,"MEAN_ANOMALY":278.6436,"EPHEMERIS_TYPE":0,"CLASSIFICATION_TYPE":"U","NORAD_CAT_ID":68264,"ELEMENT_SET_NO":999,"REV_AT_EPOCH":319,"BSTAR":-0.00455,"MEAN_MOTION_DOT":-0.0114439,"MEAN_MOTION_DDOT":0},{"OBJECT_NAME":"STARLINK-37133","OBJECT_ID":"2026-055D","EPOCH":"2026-03-31T20:00:01.999008","MEAN_MOTION":15.88542077,"ECCENTRICITY":7.88e-5,"INCLINATION":53.1574,"RA_OF_ASC_NODE":226.3904,"ARG_OF_PERICENTER":58.5292,"MEAN_ANOMALY":273.5597,"EPHEMERIS_TYPE":0,"CLASSIFICATION_TYPE":"U","NORAD_CAT_ID":68265,"ELEMENT_SET_NO":999,"REV_AT_EPOCH":319,"BSTAR":-0.0045293,"MEAN_MOTION_DOT":-0.01137163,"MEAN_MOTION_DDOT":0},{"OBJECT_NAME":"STARLINK-37042","OBJECT_ID":"2026-055E","EPOCH":"2026-03-31T20:00:01.999008","MEAN_MOTION":15.88591387,"ECCENTRICITY":8.76e-5,"INCLINATION":53.1573,"RA_OF_ASC_NODE":226.3721,"ARG_OF_PERICENTER":57.4703,"MEAN_ANOMALY":283.3667,"EPHEMERIS_TYPE":0,"CLASSIFICATION_TYPE":"U","NORAD_CAT_ID":68266,"ELEMENT_SET_NO":999,"REV_AT_EPOCH":319,"BSTAR":-0.0045582,"MEAN_MOTION_DOT":-0.01146081,"MEAN_MOTION_DDOT":0},{"OBJECT_NAME":"STARLINK-37103","OBJECT_ID":"2026-055F","EPOCH":"2026-03-31T20:00:01.999008","MEAN_MOTION":15.88631179,"ECCENTRICITY":8.28e-5,"INCLINATION":53.1575,"RA_OF_ASC_NODE":226.3631,"ARG_OF_PERICENTER":57.5677,"MEAN_ANOMALY":287.5626,"EPHEMERIS_TYPE":0,"CLASSIFICATION_TYPE":"U","NORAD_CAT_ID":68267,"ELEMENT_SET_NO":999,"REV_AT_EPOCH":319,"BSTAR":-0.0046293,"MEAN_MOTION_DOT":-0.01163768,"MEAN_MOTION_DDOT":0},{"OBJECT_NAME":"STARLINK-36999","OBJECT_ID":"2026-055G","EPOCH":"2026-03-31T20:00:01.999008","MEAN_MOTION":15.88682874,"ECCENTRICITY":6.72e-5,"INCLINATION":53.1574,"RA_OF_ASC_NODE":226.3549,"ARG_OF_PERICENTER":59.4969,"MEAN_ANOMALY":289.6471,"EPHEMERIS_TYPE":0,"CLASSIFICATION_TYPE":"U","NORAD_CAT_ID":68268,"ELEMENT_SET_NO":999,"REV_AT_EPOCH":319,"BSTAR":-0.0046254,"MEAN_MOTION_DOT":-0.01165478,"MEAN_MOTION_DDOT":0},{"OBJECT_NAME":"STARLINK-36962","OBJECT_ID":"2026-055H","EPOCH":"2026-03-31T20:00:01.999008","MEAN_MOTION":15.88726251,"ECCENTRICITY":8.52e-5,"INCLINATION":53.1574,"RA_OF_ASC_NODE":226.3461,"ARG_OF_PERICENTER":58.6229,"MEAN_ANOMALY":294.6936,"EPHEMERIS_TYPE":0,"CLASSIFICATION_TYPE":"U","NORAD_CAT_ID":68269,"ELEMENT_SET_NO":999,"REV_AT_EPOCH":319,"BSTAR":-0.0046388,"MEAN_MOTION_DOT":-0.01170793,"MEAN_MOTION_DDOT":0},{"OBJECT_NAME":"STARLINK-37028","OBJECT_ID":"2026-055J","EPOCH":"2026-03-31T20:00:01.999008","MEAN_MOTION":15.8864301,"ECCENTRICITY":8.71e-5,"INCLINATION":53.1573,"RA_OF_ASC_NODE":226.3229,"ARG_OF_PERICENTER":55.8238,"MEAN_ANOMALY":308.4398,"EPHEMERIS_TYPE":0,"CLASSIFICATION_TYPE":"U","NORAD_CAT_ID":68270,"ELEMENT_SET_NO":999,"REV_AT_EPOCH":319,"BSTAR":-0.0047781,"MEAN_MOTION_DOT":-0.01220393,"MEAN_MOTION_DDOT":0},{"OBJECT_NAME":"STARLINK-37029","OBJECT_ID":"2026-055K","EPOCH":"2026-03-31T20:00:01.999008","MEAN_MOTION":15.88602314,"ECCENTRICITY":7.75e-5,"INCLINATION":53.1572,"RA_OF_ASC_NODE":226.3321,"ARG_OF_PERICENTER":57.586,"MEAN_ANOMALY":302.4251,"EPHEMERIS_TYPE":0,"CLASSIFICATION_TYPE":"U","NORAD_CAT_ID":68271,"ELEMENT_SET_NO":999,"REV_AT_EPOCH":319,"BSTAR":-0.0047732,"MEAN_MOTION_DOT":-0.01216979,"MEAN_MOTION_DDOT":0},{"OBJECT_NAME":"STARLINK-36974","OBJECT_ID":"2026-055L","EPOCH":"2026-03-31T20:00:01.999008","MEAN_MOTION":15.88647356,"ECCENTRICITY":8.83e-5,"INCLINATION":53.1572,"RA_OF_ASC_NODE":226.3128,"ARG_OF_PERICENTER":55.8071,"MEAN_ANOMALY":313.381,"EPHEMERIS_TYPE":0,"CLASSIFICATION_TYPE":"U","NORAD_CAT_ID":68272,"ELEMENT_SET_NO":999,"REV_AT_EPOCH":319,"BSTAR":-0.0048347,"MEAN_MOTION_DOT":-0.01233482,"MEAN_MOTION_DDOT":0},{"OBJECT_NAME":"STARLINK-37019","OBJECT_ID":"2026-055M","EPOCH":"2026-03-31T20:00:01.999008","MEAN_MOTION":15.88716304,"ECCENTRICITY":8.54e-5,"INCLINATION":53.1573,"RA_OF_ASC_NODE":226.3041,"ARG_OF_PERICENTER":58.225,"MEAN_ANOMALY":314.8513,"EPHEMERIS_TYPE":0,"CLASSIFICATION_TYPE":"U","NORAD_CAT_ID":68273,"ELEMENT_SET_NO":999,"REV_AT_EPOCH":319,"BSTAR":-0.0048346,"MEAN_MOTION_DOT":-0.01237293,"MEAN_MOTION_DDOT":0},{"OBJECT_NAME":"STARLINK-37129","OBJECT_ID":"2026-055N","EPOCH":"2026-03-31T20:00:01.999008","MEAN_MOTION":15.88759938,"ECCENTRICITY":9.18e-5,"INCLINATION":53.157,"RA_OF_ASC_NODE":226.2955,"ARG_OF_PERICENTER":58.9506,"MEAN_ANOMALY":318.3885,"EPHEMERIS_TYPE":0,"CLASSIFICATION_TYPE":"U","NORAD_CAT_ID":68274,"ELEMENT_SET_NO":999,"REV_AT_EPOCH":319,"BSTAR":-0.0048267,"MEAN_MOTION_DOT":-0.01237965,"MEAN_MOTION_DDOT":0},{"OBJECT_NAME":"STARLINK-37123","OBJECT_ID":"2026-055P","EPOCH":"2026-03-31T20:00:01.999008","MEAN_MOTION":15.88836851,"ECCENTRICITY":8.58e-5,"INCLINATION":53.1573,"RA_OF_ASC_NODE":226.2878,"ARG_OF_PERICENTER":55.5157,"MEAN_ANOMALY":325.6203,"EPHEMERIS_TYPE":0,"CLASSIFICATION_TYPE":"U","NORAD_CAT_ID":68275,"ELEMENT_SET_NO":999,"REV_AT_EPOCH":319,"BSTAR":-0.0048278,"MEAN_MOTION_DOT":-0.01242475,"MEAN_MOTION_DDOT":0},{"OBJECT_NAME":"STARLINK-37125","OBJECT_ID":"2026-055Q","EPOCH":"2026-03-31T20:00:01.999008","MEAN_MOTION":15.88856139,"ECCENTRICITY":9.47e-5,"INCLINATION":53.157,"RA_OF_ASC_NODE":226.2779,"ARG_OF_PERICENTER":61.0823,"MEAN_ANOMALY":324.8556,"EPHEMERIS_TYPE":0,"CLASSIFICATION_TYPE":"U","NORAD_CAT_ID":68276,"ELEMENT_SET_NO":999,"REV_AT_EPOCH":319,"BSTAR":-0.0048488,"MEAN_MOTION_DOT":-0.01248412,"MEAN_MOTION_DDOT":0}]
